STARLINK-5826           
1 55782U 23028AT  26068.76930971 -.00000996  00000+0 -75635-4 0  9991
2 55782  69.9986 204.4326 0004001 275.9334  84.1369 14.98361608167039
SATGUS                  
1 62713U 25009DJ  26068.70670884  .00009370  00000+0  76063-3 0  9990
2 62713  97.7097 150.9679 0005670  96.3538 263.8332 14.99840473 62643
